NORAD_CAT_ID,OBJECT_NAME,OBJECT_TYPE,EPOCH,MEAN_MOTION,ECCENTRICITY,INCLINATION,RA_OF_ASC_NODE,ARG_OF_PERICENTER,MEAN_ANOMALY,BSTAR,MEAN_MOTION_DOT,MEAN_MOTION_DDOT,TLE_LINE0,TLE_LINE1,TLE_LINE2,SEMIMAJOR_AXIS,PERIOD,APOGEE,PERIGEE,DECAYED
52333.0,STARLINK-3847,PAYLOAD,2023-12-19 22:37:25,15.08835364,0.0001572,53.2165,248.7061,108.7039,251.4124,-3.8695e-05,-9.04e-06,0.0,0 STARLINK-3847,1 52333U 22045C   23353.94265314 -.00000904  00000-0 -38695-4 0  9999,2 52333  53.2165 248.7061 0001572 108.7039 251.4124 15.08835364 93230,6917.895,95.438,540.847,538.672,0.0
52333.0,STARLINK-3847,PAYLOAD,2023-12-20 22:28:12,15.08844872,0.0001643,53.2165,244.2465,113.9396,246.1769,0.00024399,3.598e-05,0.0,0 STARLINK-3847,1 52333U 22045C   23354.93625153  .00003598  00000-0  24399-3 0  9995,2 52333  53.2165 244.2465 0001643 113.9396 246.1769 15.08844872 93388,6917.865,95.437,540.867,538.594,0.0
52333.0,STARLINK-3847,PAYLOAD,2023-12-21 22:18:59,15.08836631,0.0001456,53.2154,239.7845,79.5858,280.5298,5.2107e-05,5.41e-06,0.0,0 STARLINK-3847,1 52333U 22045C   23355.92985947  .00000541  00000-0  52107-4 0  9999,2 52333  53.2154 239.7845 0001456  79.5858 280.5298 15.08836631 93539,6917.891,95.438,540.763,538.748,0.0
52333.0,STARLINK-3847,PAYLOAD,2023-12-22 18:59:01,15.08819253,0.0001884,53.2162,235.9232,84.4375,275.6832,0.0013529,0.00021297,0.0,0 STARLINK-3847,1 52333U 22045C   23356.79099345  .00021297  00000-0  13529-2 0  9997,2 52333  53.2162 235.9232 0001884  84.4375 275.6832 15.08819253 93664,6917.944,95.439,541.112,538.505,0.0
52333.0,STARLINK-3847,PAYLOAD,2023-12-22 22:09:47,15.08845065,0.0001752,53.2156,235.3329,60.7146,299.4021,0.00051501,7.919e-05,0.0,0 STARLINK-3847,1 52333U 22045C   23356.92346145  .00007919  00000-0  51501-3 0  9993,2 52333  53.2156 235.3329 0001752  60.7146 299.4021 15.08845065 93681,6917.865,95.437,540.942,538.518,0.0
52333.0,STARLINK-3847,PAYLOAD,2023-12-22 23:45:09,15.08849409,0.0001635,53.2157,235.0309,92.546,267.5719,0.000684,0.00010617,0.0,0 STARLINK-3847,1 52333U 22045C   23356.98969837  .00010617  00000-0  68400-3 0  9993,2 52333  53.2157 235.0309 0001635  92.5460 267.5719 15.08849409 93696,6917.852,95.437,540.848,538.586,0.0
52333.0,STARLINK-3847,PAYLOAD,2023-12-23 18:49:47,15.08842519,0.0001599,53.2146,231.4616,105.6385,254.4784,0.0002185,3.191e-05,0.0,0 STARLINK-3847,1 52333U 22045C   23357.78457838  .00003191  00000-0  21850-3 0  9992,2 52333  53.2146 231.4616 0001599 105.6385 254.4784 15.08842519 93812,6917.873,95.437,540.844,538.632,0.0
52333.0,STARLINK-3847,PAYLOAD,2023-12-23 22:00:33,15.08846694,0.0001615,53.2151,230.8674,89.4498,270.6679,0.00027399,4.076e-05,0.0,0 STARLINK-3847,1 52333U 22045C   23357.91705912  .00004076  00000-0  27399-3 0  9993,2 52333  53.2151 230.8674 0001615  89.4498 270.6679 15.08846694 93831,6917.86,95.437,540.842,538.608,0.0
52333.0,STARLINK-3847,PAYLOAD,2023-12-24 20:15:57,15.08884111,0.00016,53.2164,226.7025,84.7442,275.3733,0.0020311,0.00032224,0.0,0 STARLINK-3847,1 52333U 22045C   23358.84441978  .00032224  00000-0  20311-2 0  9997,2 52333  53.2164 226.7025 0001600  84.7442 275.3733 15.08884111 93974,6917.746,95.435,540.717,538.504,0.0
52333.0,STARLINK-3847,PAYLOAD,2023-12-24 21:51:21,15.08896612,0.0001523,53.2152,226.4042,109.957,250.1587,0.0025325,0.0004031,0.0,0 STARLINK-3847,1 52333U 22045C   23358.91066306  .00040310  00000-0  25325-2 0  9998,2 52333  53.2152 226.4042 0001523 109.9570 250.1587 15.08896612 93981,6917.707,95.434,540.626,538.519,0.0
52333.0,STARLINK-3847,PAYLOAD,2023-12-25 20:06:43,15.08877503,0.0002762,53.2146,222.2377,143.6582,216.4598,0.00056552,8.733e-05,0.0,0 STARLINK-3847,1 52333U 22045C   23359.83800242  .00008733  00000-0  56552-3 0  9995,2 52333  53.2146 222.2377 0002762 143.6582 216.4598 15.08877503 94125,6917.766,95.435,541.541,537.72,0.0
52333.0,STARLINK-3847,PAYLOAD,2023-12-26 00:52:53,15.08854264,0.0001905,53.2148,221.3515,107.1495,252.9706,0.0001363,1.883e-05,0.0,0 STARLINK-3847,1 52333U 22045C   23360.03672629  .00001883  00000-0  13630-3 0  9994,2 52333  53.2148 221.3515 0001905 107.1495 252.9706 15.08854264 94155,6917.837,95.437,541.02,538.384,0.0
52333.0,STARLINK-3847,PAYLOAD,2023-12-26 15:11:21,15.08837134,0.0002075,53.2151,218.6719,113.1613,246.9598,-0.00049232,-8.115e-05,0.0,0 STARLINK-3847,1 52333U 22045C   23360.63289281 -.00008115  00000-0 -49232-3 0  9992,2 52333  53.2151 218.6719 0002075 113.1613 246.9598 15.08837134 94241,6917.889,95.438,541.19,538.319,0.0
52333.0,STARLINK-3847,PAYLOAD,2023-12-26 19:57:31,15.08835905,0.0002366,53.2154,217.7763,130.5273,229.5925,-0.00034302,-5.743e-05,0.0,0 STARLINK-3847,1 52333U 22045C   23360.83161343 -.00005743  00000-0 -34302-3 0  9998,2 52333  53.2154 217.7763 0002366 130.5273 229.5925 15.08835905 94279,6917.893,95.438,541.395,538.121,0.0
52333.0,STARLINK-3847,PAYLOAD,2023-12-26 21:32:54,15.08834238,0.0002131,53.215,217.4837,106.7126,253.41,-0.00040271,-6.691e-05,0.0,0 STARLINK-3847,1 52333U 22045C   23360.89785685 -.00006691  00000-0 -40271-3 0  9990,2 52333  53.2150 217.4837 0002131 106.7126 253.4100 15.08834238 94286,6917.898,95.438,541.237,538.289,0.0
52333.0,STARLINK-3847,PAYLOAD,2023-12-27 19:48:19,15.08836675,0.0002076,53.2146,213.3207,113.375,246.7461,0.00024953,3.685e-05,0.0,0 STARLINK-3847,1 52333U 22045C   23361.82522332  .00003685  00000-0  24953-3 0  9999,2 52333  53.2146 213.3207 0002076 113.3750 246.7461 15.08836675 94420,6917.891,95.438,541.192,538.319,0.0
52333.0,STARLINK-3847,PAYLOAD,2023-12-28 00:34:28,15.08839077,0.0002004,53.2146,212.4288,111.8807,248.2398,0.00014353,1.997e-05,0.0,0 STARLINK-3847,1 52333U 22045C   23362.02394264  .00001997  00000-0  14353-3 0  9990,2 52333  53.2146 212.4288 0002004 111.8807 248.2398 15.08839077 94454,6917.883,95.438,541.135,538.362,0.0
52333.0,STARLINK-3847,PAYLOAD,2023-12-28 19:39:06,15.08842892,0.0002033,53.2142,208.8605,111.7163,248.4045,0.00032785,4.934e-05,0.0,0 STARLINK-3847,1 52333U 22045C   23362.81882587  .00004934  00000-0  32785-3 0  9990,2 52333  53.2142 208.8605 0002033 111.7163 248.4045 15.08842892 94571,6917.872,95.437,541.143,538.33,0.0
52333.0,STARLINK-3847,PAYLOAD,2023-12-29 19:29:53,15.08842652,0.0002001,53.2141,204.4001,111.1557,248.9649,0.00012491,1.7e-05,0.0,0 STARLINK-3847,1 52333U 22045C   23363.81242504  .00001700  00000-0  12491-3 0  9990,2 52333  53.2141 204.4001 0002001 111.1557 248.9649 15.08842652 94724,6917.872,95.437,541.122,538.353,0.0
52333.0,STARLINK-3847,PAYLOAD,2023-12-29 21:05:16,15.0884253,0.0001948,53.2142,204.1029,106.0835,254.0372,0.00011185,1.493e-05,0.0,0 STARLINK-3847,1 52333U 22045C   23363.87866518  .00001493  00000-0  11185-3 0  9991,2 52333  53.2142 204.1029 0001948 106.0835 254.0372 15.08842530 94730,6917.873,95.437,541.085,538.39,0.0
52333.0,STARLINK-3847,PAYLOAD,2023-12-30 12:59:07,15.08844376,0.0001916,53.2141,201.1301,102.8569,257.2638,0.00013713,1.895e-05,0.0,0 STARLINK-3847,1 52333U 22045C   23364.54106430  .00001895  00000-0  13713-3 0  9991,2 52333  53.2141 201.1301 0001916 102.8569 257.2638 15.08844376 94833,6917.867,95.437,541.057,538.407,0.0
52333.0,STARLINK-3847,PAYLOAD,2023-12-30 20:56:03,15.08845304,0.0001908,53.2146,199.643,102.6897,257.4308,0.00012735,1.74e-05,0.0,0 STARLINK-3847,1 52333U 22045C   23364.87226345  .00001740  00000-0  12735-3 0  9997,2 52333  53.2146 199.6430 0001908 102.6897 257.4308 15.08845304 94888,6917.864,95.437,541.049,538.409,0.0
52333.0,STARLINK-3847,PAYLOAD,2023-12-31 17:36:04,15.08843753,0.0001872,53.2144,195.7777,105.2346,254.8853,0.00011223,1.499e-05,0.0,0 STARLINK-3847,1 52333U 22045C   23365.73338385  .00001499  00000-0  11223-3 0  9993,2 52333  53.2144 195.7777 0001872 105.2346 254.8853 15.08843753 95013,6917.869,95.437,541.029,538.439,0.0
52333.0,STARLINK-3847,PAYLOAD,2024-01-01 19:02:14,15.08842248,0.0001829,53.2153,191.02,103.5468,256.5728,6.5083e-05,7.48e-06,0.0,0 STARLINK-3847,1 52333U 22045C   24001.79322414  .00000748  00000-0  65083-4 0  9993,2 52333  53.2153 191.0200 0001829 103.5468 256.5728 15.08842248 95176,6917.874,95.437,541.004,538.473,0.0
52333.0,STARLINK-3847,PAYLOAD,2024-01-01 22:13:00,15.08842852,0.0001827,53.2153,190.4252,103.6492,256.4704,6.4524e-05,7.39e-06,0.0,0 STARLINK-3847,1 52333U 22045C   24001.92570342  .00000739  00000-0  64524-4 0  9992,2 52333  53.2153 190.4252 0001827 103.6492 256.4704 15.08842852 95198,6917.872,95.437,541.001,538.473,0.0
52333.0,STARLINK-3847,PAYLOAD,2024-01-02 12:31:29,15.08841942,0.0001807,53.2155,187.7483,100.7746,259.345,4.7372e-05,4.66e-06,0.0,0 STARLINK-3847,1 52333U 22045C   24002.52186479  .00000466  00000-0  47372-4 0  9992,2 52333  53.2155 187.7483 0001807 100.7746 259.3450 15.08841942 95282,6917.874,95.437,540.99,538.489,0.0
52333.0,STARLINK-3847,PAYLOAD,2024-01-02 18:53:01,15.08842887,0.0001809,53.2157,186.5583,102.5347,257.5848,3.7257e-05,3.05e-06,0.0,0 STARLINK-3847,1 52333U 22045C   24002.78682334  .00000305  00000-0  37257-4 0  9994,2 52333  53.2157 186.5583 0001809 102.5347 257.5848 15.08842887 95326,6917.872,95.437,540.988,538.485,0.0
52333.0,STARLINK-3847,PAYLOAD,2024-01-03 12:22:16,15.08835529,0.0001819,53.2158,183.2865,102.0794,258.0402,4.7648e-05,4.7e-06,0.0,0 STARLINK-3847,1 52333U 22045C   24003.51546775  .00000470  00000-0  47648-4 0  9992,2 52333  53.2158 183.2865 0001819 102.0794 258.0402 15.08835529 95435,6917.894,95.438,541.017,538.501,0.0
52333.0,STARLINK-3847,PAYLOAD,2024-01-03 18:43:49,15.08835169,0.000181,53.2159,182.0969,103.4375,256.6819,3.7213e-05,3.04e-06,0.0,0 STARLINK-3847,1 52333U 22045C   24003.78042876  .00000304  00000-0  37213-4 0  9997,2 52333  53.2159 182.0969 0001810 103.4375 256.6819 15.08835169 95479,6917.895,95.438,541.012,538.508,0.0
52333.0,STARLINK-3847,PAYLOAD,2024-01-04 12:13:03,15.08838082,0.0001785,53.2159,178.8258,104.0614,256.0577,4.7252e-05,4.64e-06,0.0,0 STARLINK-3847,1 52333U 22045C   24004.50906826  .00000464  00000-0  47252-4 0  9993,2 52333  53.2159 178.8258 0001785 104.0614 256.0577 15.08838082 95581,6917.886,95.438,540.986,538.516,0.0
